NORAD_CAT_ID,OBJECT_NAME,OBJECT_TYPE,EPOCH,MEAN_MOTION,ECCENTRICITY,INCLINATION,RA_OF_ASC_NODE,ARG_OF_PERICENTER,MEAN_ANOMALY,BSTAR,MEAN_MOTION_DOT,MEAN_MOTION_DDOT,TLE_LINE0,TLE_LINE1,TLE_LINE2,SEMIMAJOR_AXIS,PERIOD,APOGEE,PERIGEE,DECAYED
53737.0,STARLINK-4646,PAYLOAD,2023-06-18 02:08:22,15.08826948,0.0001364,53.2171,53.3962,108.1645,251.9496,-0.00014992,-2.672e-05,0.0,0 STARLINK-4646,1 53737U 22107AP  23169.08914533 -.00002672  00000-0 -14992-3 0  9998,2 53737  53.2171  53.3962 0001364 108.1645 251.9496 15.08826948 43513,6917.92,95.438,540.729,538.842,0.0
53737.0,STARLINK-4646,PAYLOAD,2023-06-18 19:37:35,15.0884179,0.0001129,53.2178,50.1262,101.6372,258.4747,3.2207e-05,2.25e-06,0.0,0 STARLINK-4646,1 53737U 22107AP  23169.81777173  .00000225  00000-0  32207-4 0  9996,2 53737  53.2178  50.1262 0001129 101.6372 258.4747 15.08841790 44404,6917.875,95.437,540.521,538.959,0.0
53737.0,STARLINK-4646,PAYLOAD,2023-06-19 01:59:07,15.0885255,0.0001111,53.2175,48.9362,99.7475,260.3642,6.244e-05,7.06e-06,0.0,0 STARLINK-4646,1 53737U 22107AP  23170.08272443  .00000706  00000-0  62440-4 0  9993,2 53737  53.2175  48.9362 0001111  99.7475 260.3642 15.08852550 43668,6917.842,95.437,540.476,538.938,0.0
53737.0,STARLINK-4646,PAYLOAD,2023-06-20 01:49:55,15.08831624,0.000107,53.218,44.4751,108.0814,252.0295,0.00014983,2.097e-05,0.0,0 STARLINK-4646,1 53737U 22107AP  23171.07633789  .00002097  00000-0  14983-3 0  9990,2 53737  53.2180  44.4751 0001070 108.0814 252.0295 15.08831624 43810,6917.906,95.438,540.511,539.031,0.0
53737.0,STARLINK-4646,PAYLOAD,2023-06-20 08:11:28,15.08834779,0.0001023,53.2176,43.2862,99.568,260.5428,0.00012309,1.671e-05,0.0,0 STARLINK-4646,1 53737U 22107AP  23171.34129822  .00001671  00000-0  12309-3 0  9995,2 53737  53.2176  43.2862 0001023  99.5680 260.5428 15.08834779 44635,6917.896,95.438,540.469,539.054,0.0
53737.0,STARLINK-4646,PAYLOAD,2023-06-20 20:54:33,15.08840636,9.76e-05,53.2176,40.9075,99.5615,260.5488,-4.13e-05,-9.45e-06,0.0,0 STARLINK-4646,1 53737U 22107AP  23171.87122031 -.00000945  00000-0 -41300-4 0  9997,2 53737  53.2176  40.9075 0000976  99.5615 260.5488 15.08840636 44713,6917.878,95.438,540.419,539.068,0.0
53737.0,STARLINK-4646,PAYLOAD,2023-06-21 01:40:42,15.08846184,9.73e-05,53.2177,40.0154,99.8244,260.2858,2.8946e-06,-2.42e-06,0.0,0 STARLINK-4646,1 53737U 22107AP  23172.06993496 -.00000242  00000-0  28946-5 0  9991,2 53737  53.2177  40.0154 0000973  99.8244 260.2858 15.08846184 43969,6917.861,95.437,540.4,539.053,0.0
53737.0,STARLINK-4646,PAYLOAD,2023-06-21 19:09:57,15.08840378,9.26e-05,53.2178,36.7438,95.1099,264.9999,-1.753e-06,-3.16e-06,0.0,0 STARLINK-4646,1 53737U 22107AP  23172.79857974 -.00000316  00000-0 -17530-5 0  9991,2 53737  53.2178  36.7438 0000926  95.1099 264.9999 15.08840378 44071,6917.879,95.438,540.385,539.104,0.0
53737.0,STARLINK-4646,PAYLOAD,2023-06-21 23:56:06,15.08847601,9.75e-05,53.2179,35.8505,89.2956,270.8148,4.2627e-05,3.91e-06,0.0,0 STARLINK-4646,1 53737U 22107AP  23172.99729392  .00000391  00000-0  42627-4 0  9990,2 53737  53.2179  35.8505 0000975  89.2956 270.8148 15.08847601 44109,6917.857,95.437,540.397,539.048,0.0
53737.0,STARLINK-4646,PAYLOAD,2023-06-22 07:53:02,15.08842013,9.8e-05,53.218,34.3631,87.8783,272.2322,-1.322e-05,-4.98e-06,0.0,0 STARLINK-4646,1 53737U 22107AP  23173.32849843 -.00000498  00000-0 -13220-4 0  9999,2 53737  53.2180  34.3631 0000980  87.8783 272.2322 15.08842013 44150,6917.874,95.437,540.417,539.061,0.0
53737.0,STARLINK-4646,PAYLOAD,2023-06-23 18:51:31,15.08844116,0.000106,53.2193,27.818,107.7978,252.313,-2.0587e-06,-3.21e-06,0.0,0 STARLINK-4646,1 53737U 22107AP  23174.78577963 -.00000321  00000-0 -20587-5 0  9991,2 53737  53.2193  27.8180 0001060 107.7978 252.3130 15.08844116 44374,6917.868,95.437,540.466,539.0,0.0
53737.0,STARLINK-4646,PAYLOAD,2023-06-24 20:17:41,15.08846113,9.61e-05,53.2175,23.0658,89.742,270.3682,0.00013976,1.938e-05,0.0,0 STARLINK-4646,1 53737U 22107AP  23175.84561543  .00001938  00000-0  13976-3 0  9991,2 53737  53.2175  23.0658 0000961  89.7420 270.3682 15.08846113 44531,6917.862,95.437,540.392,539.062,0.0
53737.0,STARLINK-4646,PAYLOAD,2023-06-25 16:57:42,15.08834739,9.41e-05,53.2176,19.1999,103.0681,257.0417,5.1715e-05,5.35e-06,0.0,0 STARLINK-4646,1 53737U 22107AP  23176.70674358  .00000535  00000-0  51715-4 0  9992,2 53737  53.2176  19.1999 0000941 103.0681 257.0417 15.08834739 44666,6917.896,95.438,540.412,539.11,0.0
53737.0,STARLINK-4646,PAYLOAD,2023-06-25 23:19:14,15.0884466,9.82e-05,53.2175,18.0106,94.4657,265.6447,8.0321e-05,9.91e-06,0.0,0 STARLINK-4646,1 53737U 22107AP  23176.97169667  .00000991  00000-0  80321-4 0  9994,2 53737  53.2175  18.0106 0000982  94.4657 265.6447 15.08844660 44701,6917.866,95.437,540.41,539.052,0.0
53737.0,STARLINK-4646,PAYLOAD,2023-06-26 08:51:34,15.0883832,0.0001037,53.217,16.2261,94.2731,265.8379,1.784e-05,-4e-08,0.0,0 STARLINK-4646,1 53737U 22107AP  23177.36914377 -.00000004  00000-0  17840-4 0  9996,2 53737  53.2170  16.2261 0001037  94.2731 265.8379 15.08838320 44769,6917.886,95.438,540.468,539.033,0.0
53737.0,STARLINK-4646,PAYLOAD,2023-06-26 16:48:30,15.08832002,9.98e-05,53.2173,14.7398,92.293,267.8177,-1.5017e-05,-5.27e-06,0.0,0 STARLINK-4646,1 53737U 22107AP  23177.70034927 -.00000527  00000-0 -15017-4 0  9993,2 53737  53.2173  14.7398 0000998  92.2930 267.8177 15.08832002 44815,6917.905,95.438,540.46,539.079,0.0
53737.0,STARLINK-4646,PAYLOAD,2023-06-27 05:31:34,15.08842572,9.64e-05,53.2175,12.362,81.5046,278.6055,-7.91e-06,-4.14e-06,0.0,0 STARLINK-4646,1 53737U 22107AP  23178.23026316 -.00000414  00000-0 -79100-5 0  9994,2 53737  53.2175  12.3620 0000964  81.5046 278.6055 15.08842572 44897,6917.873,95.437,540.404,539.071,0.0
53737.0,STARLINK-4646,PAYLOAD,2023-06-28 18:05:27,15.0883682,9.63e-05,53.217,5.5233,81.0501,279.06,0.00011998,1.622e-05,0.0,0 STARLINK-4646,1 53737U 22107AP  23179.75378853  .00001622  00000-0  11998-3 0  9997,2 53737  53.2170   5.5233 0000963  81.0501 279.0600 15.08836820 45123,6917.89,95.438,540.421,539.089,0.0
53737.0,STARLINK-4646,PAYLOAD,2023-06-29 19:31:37,15.08842746,9.71e-05,53.2173,0.7656,84.2046,275.9057,4.9671e-05,5.03e-06,0.0,0 STARLINK-4646,1 53737U 22107AP  23180.81362550  .00000503  00000-0  49671-4 0  9990,2 53737  53.2173   0.7656 0000971  84.2046 275.9057 15.08842746 45282,6917.872,95.437,540.409,539.065,0.0
53737.0,STARLINK-4646,PAYLOAD,2023-06-30 16:11:38,15.08836949,7.69e-05,53.2176,356.8969,103.1555,256.9523,0.00016133,2.281e-05,0.0,0 STARLINK-4646,1 53737U 22107AP  23181.67474807  .00002281  00000-0  16133-3 0  9995,2 53737  53.2176 356.8969 0000769 103.1555 256.9523 15.08836949 45418,6917.89,95.438,540.287,539.223,0.0
53737.0,STARLINK-4646,PAYLOAD,2023-07-01 04:54:42,15.08858278,8.1e-05,53.2166,354.5187,95.4333,264.6752,0.00025438,3.765e-05,0.0,0 STARLINK-4646,1 53737U 22107AP  23182.20465467  .00003765  00000-0  25438-3 0  9993,2 53737  53.2166 354.5187 0000810  95.4333 264.6752 15.08858278 45495,6917.825,95.436,540.25,539.129,0.0
53737.0,STARLINK-4646,PAYLOAD,2023-07-01 17:37:48,15.08834186,9.39e-05,53.2174,352.1412,91.63,268.48,-1.4843e-05,-5.24e-06,0.0,0 STARLINK-4646,1 53737U 22107AP  23182.73458890 -.00000524  00000-0 -14843-4 0  9994,2 53737  53.2174 352.1412 0000939  91.6300 268.4800 15.08834186 45570,6917.898,95.438,540.413,539.114,0.0
53737.0,STARLINK-4646,PAYLOAD,2023-07-02 19:03:58,15.08841773,0.0001057,53.2168,347.3825,87.1592,272.9521,9.6903e-05,1.255e-05,0.0,0 STARLINK-4646,1 53737U 22107AP  23183.79442894  .00001255  00000-0  96903-4 0  9995,2 53737  53.2168 347.3825 0001057  87.1592 272.9521 15.08841773 45730,6917.875,95.437,540.471,539.009,0.0
53737.0,STARLINK-4646,PAYLOAD,2023-07-04 17:10:09,15.08842246,0.0001176,53.2175,338.7586,87.5189,272.5938,9.3529e-05,1.201e-05,0.0,0 STARLINK-4646,1 53737U 22107AP  23185.71539012  .00001201  00000-0  93529-4 0  9990,2 53737  53.2175 338.7586 0001176  87.5189 272.5938 15.08842246 46021,6917.874,95.437,540.552,538.925,0.0
53737.0,STARLINK-4646,PAYLOAD,2023-07-05 15:25:33,15.08839149,0.0001039,53.2175,334.5959,87.3008,272.8103,-1.9625e-08,-2.88e-06,0.0,0 STARLINK-4646,1 53737U 22107AP  23186.64275229 -.00000288  00000-0 -19625-7 0  9994,2 53737  53.2175 334.5959 0001039  87.3008 272.8103 15.08839149 46165,6917.883,95.438,540.467,539.029,0.0
53737.0,STARLINK-4646,PAYLOAD,2023-07-06 18:27:06,15.08845693,0.0001065,53.2181,329.5416,106.0236,254.0873,0.0001694,2.41e-05,0.0,0 STARLINK-4646,1 53737U 22107AP  23187.76882968  .00002410  00000-0  16940-3 0  9992,2 53737  53.2181 329.5416 0001065 106.0236 254.0873 15.08845693 46331,6917.863,95.437,540.465,538.991,0.0
53737.0,STARLINK-4646,PAYLOAD,2023-07-07 02:24:02,15.08839723,9.83e-05,53.2173,328.0509,83.5471,276.5634,8.1528e-05,1.01e-05,0.0,0 STARLINK-4646,1 53737U 22107AP  23188.10003276  .00001010  00000-0  81528-4 0  9998,2 53737  53.2173 328.0509 0000983  83.5471 276.5634 15.08839723 46383,6917.881,95.438,540.426,539.066,0.0
53737.0,STARLINK-4646,PAYLOAD,2023-07-08 18:08:41,15.08846158,9.57e-05,53.2168,320.619,85.4013,274.7088,8.2773e-05,1.03e-05,0.0,0 STARLINK-4646,1 53737U 22107AP  23189.75603118  .00001030  00000-0  82773-4 0  9996,2 53737  53.2168 320.6190 0000957  85.4013 274.7088 15.08846158 46636,6917.862,95.437,540.389,539.065,0.0
53737.0,STARLINK-4646,PAYLOAD,2023-07-09 02:05:37,15.08838873,9.31e-05,53.2167,319.1321,86.4073,273.7025,-1.0378e-05,-4.53e-06,0.0,0 STARLINK-4646,1 53737U 22107AP  23190.08723501 -.00000453  00000-0 -10378-4 0  9995,2 53737  53.2167 319.1321 0000931  86.4073 273.7025 15.08838873 46683,6917.884,95.438,540.393,539.105,0.0
53737.0,STARLINK-4646,PAYLOAD,2023-07-10 14:39:28,15.08845433,8.68e-05,53.2182,312.2926,89.3224,270.7867,0.00015341,2.155e-05,0.0,0 STARLINK-4646,1 53737U 22107AP  23191.61075128  .00002155  00000-0  15341-3 0  9993,2 53737  53.2182 312.2926 0000868  89.3224 270.7867 15.08845433 46911,6917.864,95.437,540.329,539.128,0.0
